[{"OBJECT_NAME":"ONEWEB-0392","OBJECT_ID":"2021-132D","EPOCH":"2026-02-13T00:01:16.424256","MEAN_MOTION":13.17648583,"ECCENTRICITY":0.0002158,"INCLINATION":87.9115,"RA_OF_ASC_NODE":30.5054,"ARG_OF_PERICENTER":78.4542,"MEAN_ANOMALY":281.6831,"EPHEMERIS_TYPE":0,"CLASSIFICATION_TYPE":"U","NORAD_CAT_ID":50472,"ELEMENT_SET_NO":999,"REV_AT_EPOCH":20176,"BSTAR":-0.00087623,"MEAN_MOTION_DOT":-3.27e-6,"MEAN_MOTION_DDOT":0},{"OBJECT_NAME":"ONEWEB-0393","OBJECT_ID":"2021-132E","EPOCH":"2026-02-12T23:22:37.224480","MEAN_MOTION":13.17649036,"ECCENTRICITY":0.0001992,"INCLINATION":87.9117,"RA_OF_ASC_NODE":30.5339,"ARG_OF_PERICENTER":81.7097,"MEAN_ANOMALY":278.426,"EPHEMERIS_TYPE":0,"CLASSIFICATION_TYPE":"U","NORAD_CAT_ID":50473,"ELEMENT_SET_NO":999,"REV_AT_EPOCH":20175,"BSTAR":-0.00015965,"MEAN_MOTION_DOT":-4.9e-7,"MEAN_MOTION_DDOT":0},{"OBJECT_NAME":"ONEWEB-0394","OBJECT_ID":"2021-132F","EPOCH":"2026-02-12T21:18:44.375040","MEAN_MOTION":13.18685945,"ECCENTRICITY":0.0001928,"INCLINATION":87.9231,"RA_OF_ASC_NODE":0.1161,"ARG_OF_PERICENTER":75.2467,"MEAN_ANOMALY":284.8879,"EPHEMERIS_TYPE":0,"CLASSIFICATION_TYPE":"U","NORAD_CAT_ID":50474,"ELEMENT_SET_NO":999,"REV_AT_EPOCH":20521,"BSTAR":-0.00037738,"MEAN_MOTION_DOT":-1.36e-6,"MEAN_MOTION_DDOT":0},{"OBJECT_NAME":"ONEWEB-0395","OBJECT_ID":"2021-132G","EPOCH":"2026-02-13T00:46:21.257472","MEAN_MOTION":13.11417082,"ECCENTRICITY":0.0002118,"INCLINATION":87.882,"RA_OF_ASC_NODE":45.7726,"ARG_OF_PERICENTER":89.6569,"MEAN_ANOMALY":270.4801,"EPHEMERIS_TYPE":0,"CLASSIFICATION_TYPE":"U","NORAD_CAT_ID":50475,"ELEMENT_SET_NO":999,"REV_AT_EPOCH":19944,"BSTAR":-0.0013666,"MEAN_MOTION_DOT":-4.72e-6,"MEAN_MOTION_DDOT":0},{"OBJECT_NAME":"ONEWEB-0396","OBJECT_ID":"2021-132H","EPOCH":"2026-02-12T21:09:14.116032","MEAN_MOTION":13.18686451,"ECCENTRICITY":0.0001912,"INCLINATION":87.9232,"RA_OF_ASC_NODE":0.1298,"ARG_OF_PERICENTER":79.042,"MEAN_ANOMALY":281.0927,"EPHEMERIS_TYPE":0,"CLASSIFICATION_TYPE":"U","NORAD_CAT_ID":50476,"ELEMENT_SET_NO":999,"REV_AT_EPOCH":20525,"BSTAR":-0.0004613,"MEAN_MOTION_DOT":-1.69e-6,"MEAN_MOTION_DDOT":0},{"OBJECT_NAME":"ONEWEB-0397","OBJECT_ID":"2021-132J","EPOCH":"2026-02-12T21:30:35.993088","MEAN_MOTION":13.18683971,"ECCENTRICITY":0.0001827,"INCLINATION":87.9232,"RA_OF_ASC_NODE":0.1266,"ARG_OF_PERICENTER":75.1824,"MEAN_ANOMALY":284.951,"EPHEMERIS_TYPE":0,"CLASSIFICATION_TYPE":"U","NORAD_CAT_ID":50477,"ELEMENT_SET_NO":999,"REV_AT_EPOCH":20523,"BSTAR":3.2822e-6,"MEAN_MOTION_DOT":1.4e-7,"MEAN_MOTION_DDOT":0},{"OBJECT_NAME":"ONEWEB-0398","OBJECT_ID":"2021-132K","EPOCH":"2026-02-12T23:59:58.857792","MEAN_MOTION":13.11415608,"ECCENTRICITY":0.0002156,"INCLINATION":87.8831,"RA_OF_ASC_NODE":45.7573,"ARG_OF_PERICENTER":93.5822,"MEAN_ANOMALY":266.5552,"EPHEMERIS_TYPE":0,"CLASSIFICATION_TYPE":"U","NORAD_CAT_ID":50478,"ELEMENT_SET_NO":999,"REV_AT_EPOCH":19933,"BSTAR":0.0009663,"MEAN_MOTION_DOT":3.55e-6,"MEAN_MOTION_DDOT":0},{"OBJECT_NAME":"ONEWEB-0399","OBJECT_ID":"2021-132L","EPOCH":"2026-02-12T23:40:27.499296","MEAN_MOTION":13.11417866,"ECCENTRICITY":0.0002034,"INCLINATION":87.8828,"RA_OF_ASC_NODE":45.7697,"ARG_OF_PERICENTER":73.0021,"MEAN_ANOMALY":287.133,"EPHEMERIS_TYPE":0,"CLASSIFICATION_TYPE":"U","NORAD_CAT_ID":50479,"ELEMENT_SET_NO":999,"REV_AT_EPOCH":19932,"BSTAR":0.0015525,"MEAN_MOTION_DOT":5.63e-6,"MEAN_MOTION_DDOT":0},{"OBJECT_NAME":"ONEWEB-0400","OBJECT_ID":"2021-132M","EPOCH":"2026-02-12T20:59:44.442816","MEAN_MOTION":13.18686086,"ECCENTRICITY":0.0001952,"INCLINATION":87.9233,"RA_OF_ASC_NODE":0.1209,"ARG_OF_PERICENTER":82.9173,"MEAN_ANOMALY":277.2181,"EPHEMERIS_TYPE":0,"CLASSIFICATION_TYPE":"U","NORAD_CAT_ID":50480,"ELEMENT_SET_NO":999,"REV_AT_EPOCH":20522,"BSTAR":-0.0003576,"MEAN_MOTION_DOT":-1.28e-6,"MEAN_MOTION_DDOT":0},{"OBJECT_NAME":"ONEWEB-0401","OBJECT_ID":"2021-132N","EPOCH":"2026-02-12T20:14:36.446496","MEAN_MOTION":13.18684621,"ECCENTRICITY":0.00016328,"INCLINATION":87.923,"RA_OF_ASC_NODE":0.1233,"ARG_OF_PERICENTER":77.6916,"MEAN_ANOMALY":282.4399,"EPHEMERIS_TYPE":0,"CLASSIFICATION_TYPE":"U","NORAD_CAT_ID":50481,"ELEMENT_SET_NO":999,"REV_AT_EPOCH":20522,"BSTAR":4.6163233e-5,"MEAN_MOTION_DOT":3.1e-7,"MEAN_MOTION_DDOT":0},{"OBJECT_NAME":"ONEWEB-0402","OBJECT_ID":"2021-132P","EPOCH":"2026-02-12T21:11:36.821184","MEAN_MOTION":13.18686534,"ECCENTRICITY":0.0001372,"INCLINATION":87.923,"RA_OF_ASC_NODE":0.1069,"ARG_OF_PERICENTER":76.2554,"MEAN_ANOMALY":283.8731,"EPHEMERIS_TYPE":0,"CLASSIFICATION_TYPE":"U","NORAD_CAT_ID":50482,"ELEMENT_SET_NO":999,"REV_AT_EPOCH":20525,"BSTAR":-0.00030025,"MEAN_MOTION_DOT":-1.05e-6,"MEAN_MOTION_DDOT":0},{"OBJECT_NAME":"ONEWEB-0403","OBJECT_ID":"2021-132Q","EPOCH":"2026-02-12T19:57:58.511808","MEAN_MOTION":13.18685338,"ECCENTRICITY":0.00019595,"INCLINATION":87.9225,"RA_OF_ASC_NODE":0.1405,"ARG_OF_PERICENTER":78.0661,"MEAN_ANOMALY":282.0691,"EPHEMERIS_TYPE":0,"CLASSIFICATION_TYPE":"U","NORAD_CAT_ID":50483,"ELEMENT_SET_NO":999,"REV_AT_EPOCH":20520,"BSTAR":-0.00069417153,"MEAN_MOTION_DOT":-2.61e-6,"MEAN_MOTION_DDOT":0},{"OBJECT_NAME":"ONEWEB-0404","OBJECT_ID":"2021-132R","EPOCH":"2026-02-12T23:13:35.480064","MEAN_MOTION":13.11418536,"ECCENTRICITY":0.0002075,"INCLINATION":87.8833,"RA_OF_ASC_NODE":45.7811,"ARG_OF_PERICENTER":81.6276,"MEAN_ANOMALY":278.5087,"EPHEMERIS_TYPE":0,"CLASSIFICATION_TYPE":"U","NORAD_CAT_ID":50484,"ELEMENT_SET_NO":999,"REV_AT_EPOCH":19941,"BSTAR":-0.00045226,"MEAN_MOTION_DOT":-1.48e-6,"MEAN_MOTION_DDOT":0},{"OBJECT_NAME":"ONEWEB-0405","OBJECT_ID":"2021-132S","EPOCH":"2026-02-12T20:19:20.669664","MEAN_MOTION":13.18685339,"ECCENTRICITY":0.00017,"INCLINATION":87.9232,"RA_OF_ASC_NODE":0.12,"ARG_OF_PERICENTER":74.4808,"MEAN_ANOMALY":285.6512,"EPHEMERIS_TYPE":0,"CLASSIFICATION_TYPE":"U","NORAD_CAT_ID":50485,"ELEMENT_SET_NO":999,"REV_AT_EPOCH":20560,"BSTAR":-0.0004826096,"MEAN_MOTION_DOT":-1.77e-6,"MEAN_MOTION_DDOT":0},{"OBJECT_NAME":"ONEWEB-0406","OBJECT_ID":"2021-132T","EPOCH":"2026-02-12T20:05:07.610496","MEAN_MOTION":13.18686077,"ECCENTRICITY":0.00022173,"INCLINATION":87.9232,"RA_OF_ASC_NODE":0.1491,"ARG_OF_PERICENTER":70.7743,"MEAN_ANOMALY":289.3629,"EPHEMERIS_TYPE":0,"CLASSIFICATION_TYPE":"U","NORAD_CAT_ID":50486,"ELEMENT_SET_NO":999,"REV_AT_EPOCH":20523,"BSTAR":2.0796114e-5,"MEAN_MOTION_DOT":2.1e-7,"MEAN_MOTION_DDOT":0},{"OBJECT_NAME":"ONEWEB-0407","OBJECT_ID":"2021-132U","EPOCH":"2026-02-12T19:55:35.817888","MEAN_MOTION":13.1868581,"ECCENTRICITY":0.00017342,"INCLINATION":87.9224,"RA_OF_ASC_NODE":0.1331,"ARG_OF_PERICENTER":80.1063,"MEAN_ANOMALY":280.0265,"EPHEMERIS_TYPE":0,"CLASSIFICATION_TYPE":"U","NORAD_CAT_ID":50487,"ELEMENT_SET_NO":999,"REV_AT_EPOCH":20517,"BSTAR":-0.00066230759,"MEAN_MOTION_DOT":-2.48e-6,"MEAN_MOTION_DDOT":0},{"OBJECT_NAME":"ONEWEB-0409","OBJECT_ID":"2021-132V","EPOCH":"2026-02-12T23:11:08.688192","MEAN_MOTION":13.11418979,"ECCENTRICITY":0.0002182,"INCLINATION":87.8843,"RA_OF_ASC_NODE":45.7603,"ARG_OF_PERICENTER":86.855,"MEAN_ANOMALY":273.2828,"EPHEMERIS_TYPE":0,"CLASSIFICATION_TYPE":"U","NORAD_CAT_ID":50488,"ELEMENT_SET_NO":999,"REV_AT_EPOCH":19930,"BSTAR":-0.0006393,"MEAN_MOTION_DOT":-2.14e-6,"MEAN_MOTION_DDOT":0}]
