ONEWEB-0392             
1 50472U 21132D   26044.00088454 -.00000327  00000+0 -87623-3 0  9994
2 50472  87.9115  30.5054 0002158  78.4542 281.6831 13.17648583201765
ONEWEB-0393             
1 50473U 21132E   26043.97404195 -.00000049  00000+0 -15965-3 0  9995
2 50473  87.9117  30.5339 0001992  81.7097 278.4260 13.17649036201754
ONEWEB-0394             
1 50474U 21132F   26043.88801360 -.00000136  00000+0 -37738-3 0  9990
2 50474  87.9231   0.1161 0001928  75.2467 284.8879 13.18685945205218
ONEWEB-0395             
1 50475U 21132G   26044.03219048 -.00000472  00000+0 -13666-2 0  9991
2 50475  87.8820  45.7726 0002118  89.6569 270.4801 13.11417082199449
ONEWEB-0396             
1 50476U 21132H   26043.88141338 -.00000169  00000+0 -46130-3 0  9996
2 50476  87.9232   0.1298 0001912  79.0420 281.0927 13.18686451205256
ONEWEB-0397             
1 50477U 21132J   26043.89624992  .00000014  00000+0  32822-5 0  9992
2 50477  87.9232   0.1266 0001827  75.1824 284.9510 13.18683971205234
ONEWEB-0398             
1 50478U 21132K   26043.99998678  .00000355  00000+0  96630-3 0  9992
2 50478  87.8831  45.7573 0002156  93.5822 266.5552 13.11415608199331
ONEWEB-0399             
1 50479U 21132L   26043.98642939  .00000563  00000+0  15525-2 0  9992
2 50479  87.8828  45.7697 0002034  73.0021 287.1330 13.11417866199324
ONEWEB-0400             
1 50480U 21132M   26043.87481994 -.00000128  00000+0 -35760-3 0  9997
2 50480  87.9233   0.1209 0001952  82.9173 277.2181 13.18686086205226
ONEWEB-0401             
1 50481U 21132N   26043.84347739  .00000031  00000+0  46163-4 0  9994
2 50481  87.9230   0.1233 0001632  77.6916 282.4399 13.18684621205224
ONEWEB-0402             
1 50482U 21132P   26043.88306506 -.00000105  00000+0 -30025-3 0  9999
2 50482  87.9230   0.1069 0001372  76.2554 283.8731 13.18686534205259
ONEWEB-0403             
1 50483U 21132Q   26043.83192722 -.00000261  00000+0 -69417-3 0  9998
2 50483  87.9225   0.1405 0001959  78.0661 282.0691 13.18685338205200
ONEWEB-0404             
1 50484U 21132R   26043.96777176 -.00000148  00000+0 -45226-3 0  9991
2 50484  87.8833  45.7811 0002075  81.6276 278.5087 13.11418536199414
ONEWEB-0405             
1 50485U 21132S   26043.84676701 -.00000177  00000+0 -48261-3 0  9995
2 50485  87.9232   0.1200 0001700  74.4808 285.6512 13.18685339205606
ONEWEB-0406             
1 50486U 21132T   26043.83689364  .00000021  00000+0  20796-4 0  9994
2 50486  87.9232   0.1491 0002217  70.7743 289.3629 13.18686077205239
ONEWEB-0407             
1 50487U 21132U   26043.83027567 -.00000248  00000+0 -66231-3 0  9992
2 50487  87.9224   0.1331 0001734  80.1063 280.0265 13.18685810205178
ONEWEB-0409             
1 50488U 21132V   26043.96607278 -.00000214  00000+0 -63930-3 0  9996
2 50488  87.8843  45.7603 0002182  86.8550 273.2828 13.11418979199303
